[{"OBJECT_NAME":"TDRS 3","OBJECT_ID":"1988-091B","EPOCH":"2026-04-04T12:33:14.475744","MEAN_MOTION":1.00267649,"ECCENTRICITY":0.0042191,"INCLINATION":12.6579,"RA_OF_ASC_NODE":341.4879,"ARG_OF_PERICENTER":356.0822,"MEAN_ANOMALY":354.5642,"EPHEMERIS_TYPE":0,"CLASSIFICATION_TYPE":"U","NORAD_CAT_ID":19548,"ELEMENT_SET_NO":999,"REV_AT_EPOCH":12464,"BSTAR":0,"MEAN_MOTION_DOT":-3.0e-6,"MEAN_MOTION_DDOT":0},{"OBJECT_NAME":"FLTSATCOM 8 (USA 46)","OBJECT_ID":"1989-077A","EPOCH":"2026-04-04T15:05:37.951008","MEAN_MOTION":1.00271462,"ECCENTRICITY":0.0007944,"INCLINATION":12.4422,"RA_OF_ASC_NODE":351.6054,"ARG_OF_PERICENTER":358.0848,"MEAN_ANOMALY":195.4376,"EPHEMERIS_TYPE":0,"CLASSIFICATION_TYPE":"U","NORAD_CAT_ID":20253,"ELEMENT_SET_NO":999,"REV_AT_EPOCH":25982,"BSTAR":0,"MEAN_MOTION_DOT":-3.67e-6,"MEAN_MOTION_DDOT":0},{"OBJECT_NAME":"SKYNET 4C","OBJECT_ID":"1990-079A","EPOCH":"2026-04-03T19:49:59.408256","MEAN_MOTION":1.00276455,"ECCENTRICITY":0.00034996,"INCLINATION":13.3639,"RA_OF_ASC_NODE":350.3222,"ARG_OF_PERICENTER":16.571,"MEAN_ANOMALY":156.1426,"EPHEMERIS_TYPE":0,"CLASSIFICATION_TYPE":"U","NORAD_CAT_ID":20776,"ELEMENT_SET_NO":999,"REV_AT_EPOCH":13014,"BSTAR":0,"MEAN_MOTION_DOT":1.24e-6,"MEAN_MOTION_DDOT":0},{"OBJECT_NAME":"TDRS 5","OBJECT_ID":"1991-054B","EPOCH":"2026-04-04T10:16:38.913024","MEAN_MOTION":1.00279312,"ECCENTRICITY":0.00086373,"INCLINATION":14.0809,"RA_OF_ASC_NODE":354.3247,"ARG_OF_PERICENTER":279.6049,"MEAN_ANOMALY":265.4293,"EPHEMERIS_TYPE":0,"CLASSIFICATION_TYPE":"U","NORAD_CAT_ID":21639,"ELEMENT_SET_NO":999,"REV_AT_EPOCH":12697,"BSTAR":0,"MEAN_MOTION_DOT":8.4e-7,"MEAN_MOTION_DDOT":0},{"OBJECT_NAME":"TDRS 6","OBJECT_ID":"1993-003B","EPOCH":"2026-04-04T03:35:18.183264","MEAN_MOTION":1.00267572,"ECCENTRICITY":0.00051072,"INCLINATION":14.182,"RA_OF_ASC_NODE":357.6092,"ARG_OF_PERICENTER":182.8149,"MEAN_ANOMALY":19.9445,"EPHEMERIS_TYPE":0,"CLASSIFICATION_TYPE":"U","NORAD_CAT_ID":22314,"ELEMENT_SET_NO":999,"REV_AT_EPOCH":12166,"BSTAR":0,"MEAN_MOTION_DOT":-2.97e-6,"MEAN_MOTION_DDOT":0},{"OBJECT_NAME":"UFO 2 (USA 95)","OBJECT_ID":"1993-056A","EPOCH":"2026-04-01T07:32:51.649152","MEAN_MOTION":1.00277047,"ECCENTRICITY":0.00091171,"INCLINATION":11.8722,"RA_OF_ASC_NODE":3.9725,"ARG_OF_PERICENTER":359.977,"MEAN_ANOMALY":327.6334,"EPHEMERIS_TYPE":0,"CLASSIFICATION_TYPE":"U","NORAD_CAT_ID":22787,"ELEMENT_SET_NO":999,"REV_AT_EPOCH":11777,"BSTAR":0,"MEAN_MOTION_DOT":1.18e-6,"MEAN_MOTION_DDOT":0},{"OBJECT_NAME":"USA 99 (MILSTAR-1 1)","OBJECT_ID":"1994-009A","EPOCH":"2026-04-04T07:13:26.426784","MEAN_MOTION":1.00272886,"ECCENTRICITY":0.00039805,"INCLINATION":17.5086,"RA_OF_ASC_NODE":28.5066,"ARG_OF_PERICENTER":336.0129,"MEAN_ANOMALY":206.481,"EPHEMERIS_TYPE":0,"CLASSIFICATION_TYPE":"U","NORAD_CAT_ID":22988,"ELEMENT_SET_NO":999,"REV_AT_EPOCH":3221,"BSTAR":0,"MEAN_MOTION_DOT":-1.99e-6,"MEAN_MOTION_DDOT":0},{"OBJECT_NAME":"UFO 4 (USA 108)","OBJECT_ID":"1995-003A","EPOCH":"2026-04-04T13:36:16.519104","MEAN_MOTION":1.00269348,"ECCENTRICITY":0.0003453,"INCLINATION":9.697,"RA_OF_ASC_NODE":13.4717,"ARG_OF_PERICENTER":355.0489,"MEAN_ANOMALY":200.7944,"EPHEMERIS_TYPE":0,"CLASSIFICATION_TYPE":"U","NORAD_CAT_ID":23467,"ELEMENT_SET_NO":999,"REV_AT_EPOCH":11421,"BSTAR":0,"MEAN_MOTION_DOT":-2.1e-7,"MEAN_MOTION_DDOT":0},{"OBJECT_NAME":"TDRS 7","OBJECT_ID":"1995-035B","EPOCH":"2026-04-03T16:47:21.609888","MEAN_MOTION":1.00268526,"ECCENTRICITY":0.00093138,"INCLINATION":13.4085,"RA_OF_ASC_NODE":348.702,"ARG_OF_PERICENTER":55.3162,"MEAN_ANOMALY":128.8446,"EPHEMERIS_TYPE":0,"CLASSIFICATION_TYPE":"U","NORAD_CAT_ID":23613,"ELEMENT_SET_NO":999,"REV_AT_EPOCH":11250,"BSTAR":0,"MEAN_MOTION_DOT":-2.4e-6,"MEAN_MOTION_DDOT":0},{"OBJECT_NAME":"USA 115 (MILSTAR-1 2)","OBJECT_ID":"1995-060A","EPOCH":"2026-04-01T10:05:27.602304","MEAN_MOTION":1.00275542,"ECCENTRICITY":0.00039388,"INCLINATION":14.0463,"RA_OF_ASC_NODE":4.3204,"ARG_OF_PERICENTER":354.5502,"MEAN_ANOMALY":222.3022,"EPHEMERIS_TYPE":0,"CLASSIFICATION_TYPE":"U","NORAD_CAT_ID":23712,"ELEMENT_SET_NO":999,"REV_AT_EPOCH":3211,"BSTAR":0,"MEAN_MOTION_DOT":-2.7e-7,"MEAN_MOTION_DDOT":0},{"OBJECT_NAME":"INMARSAT 3-F1","OBJECT_ID":"1996-020A","EPOCH":"2026-04-04T05:11:38.889312","MEAN_MOTION":1.00000478,"ECCENTRICITY":0.00047248,"INCLINATION":10.4495,"RA_OF_ASC_NODE":47.3028,"ARG_OF_PERICENTER":303.1705,"MEAN_ANOMALY":260.0682,"EPHEMERIS_TYPE":0,"CLASSIFICATION_TYPE":"U","NORAD_CAT_ID":23839,"ELEMENT_SET_NO":999,"REV_AT_EPOCH":10951,"BSTAR":0,"MEAN_MOTION_DOT":-2.0e-6,"MEAN_MOTION_DDOT":0},{"OBJECT_NAME":"INMARSAT 3-F2","OBJECT_ID":"1996-053A","EPOCH":"2026-04-04T12:07:14.788992","MEAN_MOTION":0.99984745,"ECCENTRICITY":0.00063903,"INCLINATION":9.6921,"RA_OF_ASC_NODE":54.673,"ARG_OF_PERICENTER":323.8665,"MEAN_ANOMALY":218.1761,"EPHEMERIS_TYPE":0,"CLASSIFICATION_TYPE":"U","NORAD_CAT_ID":24307,"ELEMENT_SET_NO":999,"REV_AT_EPOCH":10818,"BSTAR":0,"MEAN_MOTION_DOT":1.09e-6,"MEAN_MOTION_DDOT":0},{"OBJECT_NAME":"INMARSAT 3-F3","OBJECT_ID":"1996-070A","EPOCH":"2026-04-03T18:32:17.296224","MEAN_MOTION":0.99989592,"ECCENTRICITY":0.00056156,"INCLINATION":10.1595,"RA_OF_ASC_NODE":50.351,"ARG_OF_PERICENTER":298.0705,"MEAN_ANOMALY":242.9164,"EPHEMERIS_TYPE":0,"CLASSIFICATION_TYPE":"U","NORAD_CAT_ID":24674,"ELEMENT_SET_NO":999,"REV_AT_EPOCH":10716,"BSTAR":0,"MEAN_MOTION_DOT":-3.57e-6,"MEAN_MOTION_DDOT":0},{"OBJECT_NAME":"AMC-3","OBJECT_ID":"1997-050A","EPOCH":"2026-04-04T09:01:16.086432","MEAN_MOTION":1.002714,"ECCENTRICITY":0.00033314,"INCLINATION":7.9661,"RA_OF_ASC_NODE":64.9152,"ARG_OF_PERICENTER":308.4485,"MEAN_ANOMALY":242.6404,"EPHEMERIS_TYPE":0,"CLASSIFICATION_TYPE":"U","NORAD_CAT_ID":24936,"ELEMENT_SET_NO":999,"REV_AT_EPOCH":5169,"BSTAR":0,"MEAN_MOTION_DOT":-2.6e-6,"MEAN_MOTION_DDOT":0},{"OBJECT_NAME":"USA 134","OBJECT_ID":"1997-065A","EPOCH":"2026-04-04T08:49:39.698112","MEAN_MOTION":1.00271311,"ECCENTRICITY":0.0006366,"INCLINATION":12.6979,"RA_OF_ASC_NODE":22.2703,"ARG_OF_PERICENTER":322.9409,"MEAN_ANOMALY":227.4416,"EPHEMERIS_TYPE":0,"CLASSIFICATION_TYPE":"U","NORAD_CAT_ID":25019,"ELEMENT_SET_NO":999,"REV_AT_EPOCH":3221,"BSTAR":0,"MEAN_MOTION_DOT":-6.1e-7,"MEAN_MOTION_DDOT":0},{"OBJECT_NAME":"INMARSAT 3-F5","OBJECT_ID":"1998-006B","EPOCH":"2026-04-04T05:41:05.283744","MEAN_MOTION":1.00272923,"ECCENTRICITY":0.00053478,"INCLINATION":9.5298,"RA_OF_ASC_NODE":53.9797,"ARG_OF_PERICENTER":322.9593,"MEAN_ANOMALY":206.9083,"EPHEMERIS_TYPE":0,"CLASSIFICATION_TYPE":"U","NORAD_CAT_ID":25153,"ELEMENT_SET_NO":999,"REV_AT_EPOCH":10315,"BSTAR":0,"MEAN_MOTION_DOT":-2.89e-6,"MEAN_MOTION_DDOT":0},{"OBJECT_NAME":"ABS-6","OBJECT_ID":"1999-053A","EPOCH":"2026-04-04T05:31:38.645760","MEAN_MOTION":1.00272028,"ECCENTRICITY":0.00029464,"INCLINATION":0.046,"RA_OF_ASC_NODE":93.1908,"ARG_OF_PERICENTER":301.0622,"MEAN_ANOMALY":40.194,"EPHEMERIS_TYPE":0,"CLASSIFICATION_TYPE":"U","NORAD_CAT_ID":25924,"ELEMENT_SET_NO":999,"REV_AT_EPOCH":9709,"BSTAR":0,"MEAN_MOTION_DOT":-1.2e-6,"MEAN_MOTION_DDOT":0}]
