TDRS 3                  
1 19548U 88091B   26094.52308421 -.00000300  00000+0  00000+0 0  9991
2 19548  12.6579 341.4879 0042191 356.0822 354.5642  1.00267649124649
FLTSATCOM 8 (USA 46)    
1 20253U 89077A   26094.62891147 -.00000367  00000+0  00000+0 0  9997
2 20253  12.4422 351.6054 0007944 358.0848 195.4376  1.00271462259827
SKYNET 4C               
1 20776U 90079A   26093.82638204  .00000124  00000+0  00000+0 0  9995
2 20776  13.3639 350.3222 0003499  16.5710 156.1426  1.00276455130145
TDRS 5                  
1 21639U 91054B   26094.42822816  .00000084  00000+0  00000+0 0  9994
2 21639  14.0809 354.3247 0008637 279.6049 265.4293  1.00279312126975
TDRS 6                  
1 22314U 93003B   26094.14951601 -.00000297  00000+0  00000+0 0  9992
2 22314  14.1820 357.6092 0005107 182.8149  19.9445  1.00267572121666
UFO 2 (USA 95)          
1 22787U 93056A   26091.31448668  .00000118  00000+0  00000+0 0  9995
2 22787  11.8722   3.9725 0009117 359.9770 327.6334  1.00277047117772
USA 99 (MILSTAR-1 1)    
1 22988U 94009A   26094.30100031 -.00000199  00000+0  00000+0 0  9998
2 22988  17.5086  28.5066 0003980 336.0129 206.4810  1.00272886 32212
UFO 4 (USA 108)         
1 23467U 95003A   26094.56685786 -.00000021  00000+0  00000+0 0  9993
2 23467   9.6970  13.4717 0003453 355.0489 200.7944  1.00269348114215
TDRS 7                  
1 23613U 95035B   26093.69955567 -.00000240  00000+0  00000+0 0  9994
2 23613  13.4085 348.7020 0009313  55.3162 128.8446  1.00268526112502
USA 115 (MILSTAR-1 2)   
1 23712U 95060A   26091.42045836 -.00000027  00000+0  00000+0 0  9993
2 23712  14.0463   4.3204 0003938 354.5502 222.3022  1.00275542 32111
INMARSAT 3-F1           
1 23839U 96020A   26094.21642233 -.00000200  00000+0  00000+0 0  9997
2 23839  10.4495  47.3028 0004724 303.1705 260.0682  1.00000478109510
INMARSAT 3-F2           
1 24307U 96053A   26094.50503228  .00000109  00000+0  00000+0 0  9993
2 24307   9.6921  54.6730 0006390 323.8665 218.1761  0.99984745108180
INMARSAT 3-F3           
1 24674U 96070A   26093.77242241 -.00000357  00000+0  00000+0 0  9998
2 24674  10.1595  50.3510 0005615 298.0705 242.9164  0.99989592107161
AMC-3                   
1 24936U 97050A   26094.37588063 -.00000260  00000+0  00000+0 0  9993
2 24936   7.9661  64.9152 0003331 308.4485 242.6404  1.00271400 51692
USA 134                 
1 25019U 97065A   26094.36782058 -.00000061  00000+0  00000+0 0  9990
2 25019  12.6979  22.2703 0006366 322.9409 227.4416  1.00271311 32219
INMARSAT 3-F5           
1 25153U 98006B   26094.23686671 -.00000289  00000+0  00000+0 0  9997
2 25153   9.5298  53.9797 0005347 322.9593 206.9083  1.00272923103157
ABS-6                   
1 25924U 99053A   26094.23030840 -.00000120  00000+0  00000+0 0  9991
2 25924   0.0460  93.1908 0002946 301.0622  40.1940  1.00272028 97094
